NORAD_CAT_ID,OBJECT_NAME,OBJECT_TYPE,EPOCH,MEAN_MOTION,ECCENTRICITY,INCLINATION,RA_OF_ASC_NODE,ARG_OF_PERICENTER,MEAN_ANOMALY,BSTAR,MEAN_MOTION_DOT,MEAN_MOTION_DDOT,TLE_LINE0,TLE_LINE1,TLE_LINE2,SEMIMAJOR_AXIS,PERIOD,APOGEE,PERIGEE,DECAYED
53578.0,STARLINK-4556,PAYLOAD,2024-04-03 01:20:32,15.08830363,0.0001398,53.2189,341.4671,83.6537,276.4614,-0.00024429,-4.173e-05,0.0,0 STARLINK-4556,1 53578U 22101BD  24094.05593240 -.00004173  00000-0 -24429-3 0  9992,2 53578  53.2189 341.4671 0001398  83.6537 276.4614 15.08830363 89922,6917.91,95.438,540.742,538.808,0.0
53578.0,STARLINK-4556,PAYLOAD,2024-04-03 09:17:28,15.08824121,0.000139,53.2184,339.981,87.5296,272.5856,-0.00028299,-4.787e-05,0.0,0 STARLINK-4556,1 53578U 22101BD  24094.38713721 -.00004787  00000-0 -28299-3 0  9996,2 53578  53.2184 339.9810 0001390  87.5296 272.5856 15.08824121 89976,6917.929,95.439,540.756,538.832,0.0
53578.0,STARLINK-4556,PAYLOAD,2024-04-03 20:25:11,15.08819137,0.0001417,53.2183,337.8986,89.6814,270.4341,-6.4446e-05,-1.313e-05,0.0,0 STARLINK-4556,1 53578U 22101BD  24094.85083306 -.00001313  00000-0 -64446-4 0  9994,2 53578  53.2183 337.8986 0001417  89.6814 270.4341 15.08819137 90042,6917.944,95.439,540.789,538.829,0.0
53578.0,STARLINK-4556,PAYLOAD,2024-04-04 09:08:16,15.08839882,0.0001223,53.2201,335.5179,93.3413,266.7719,-0.00014316,-2.565e-05,0.0,0 STARLINK-4556,1 53578U 22101BD  24095.38074430 -.00002565  00000-0 -14316-3 0  9991,2 53578  53.2201 335.5179 0001223  93.3413 266.7719 15.08839882 90129,6917.881,95.438,540.592,538.9,0.0
53578.0,STARLINK-4556,PAYLOAD,2024-04-04 21:51:17,15.08926586,0.0001544,53.2179,333.1407,66.9516,293.1639,-0.0014397,-0.00023182,0.0,0 STARLINK-4556,1 53578U 22101BD  24095.91061401 -.00023182  00000-0 -14397-2 0  9990,2 53578  53.2179 333.1407 0001544  66.9516 293.1639 15.08926586 90209,6917.616,95.432,540.549,538.413,0.0
53578.0,STARLINK-4556,PAYLOAD,2024-04-05 04:12:53,15.08838468,0.0001261,53.2182,331.9512,78.0917,282.0217,0.00041595,6.338e-05,0.0,0 STARLINK-4556,1 53578U 22101BD  24096.17562315  .00006338  00000-0  41595-3 0  9992,2 53578  53.2182 331.9512 0001261  78.0917 282.0217 15.08838468 90245,6917.885,95.438,540.622,538.878,0.0
53578.0,STARLINK-4556,PAYLOAD,2024-04-05 15:20:35,15.08837617,0.0001427,53.2193,329.8723,87.6253,272.4903,0.00023739,3.492e-05,0.0,0 STARLINK-4556,1 53578U 22101BD  24096.63930321  .00003492  00000-0  23739-3 0  9997,2 53578  53.2193 329.8723 0001427  87.6253 272.4903 15.08837617 90318,6917.888,95.438,540.74,538.765,0.0
53578.0,STARLINK-4556,PAYLOAD,2024-04-05 21:42:08,15.08839047,0.000117,53.2189,328.681,92.8927,267.2199,0.00029808,4.459e-05,0.0,0 STARLINK-4556,1 53578U 22101BD  24096.90426121  .00004459  00000-0  29808-3 0  9992,2 53578  53.2189 328.6810 0001170  92.8927 267.2199 15.08839047 90350,6917.883,95.438,540.558,538.939,0.0
53578.0,STARLINK-4556,PAYLOAD,2024-04-06 08:49:50,15.08845006,9.29e-05,53.2173,326.5983,94.6765,265.4333,0.00020886,3.038e-05,0.0,0 STARLINK-4556,1 53578U 22101BD  24097.36794132  .00003038  00000-0  20886-3 0  9992,2 53578  53.2173 326.5983 0000929  94.6765 265.4333 15.08845006 90422,6917.865,95.437,540.373,539.087,0.0
53578.0,STARLINK-4556,PAYLOAD,2024-04-06 21:32:55,15.08842467,0.0001488,53.2175,324.2202,85.8414,274.2748,9.9663e-05,1.299e-05,0.0,0 STARLINK-4556,1 53578U 22101BD  24097.89786418  .00001299  00000-0  99663-4 0  9995,2 53578  53.2175 324.2202 0001488  85.8414 274.2748 15.08842467 90502,6917.873,95.437,540.767,538.708,0.0
53578.0,STARLINK-4556,PAYLOAD,2024-04-07 00:43:41,15.08843192,0.0001424,53.2194,323.6246,92.0962,268.0193,-4.3808e-06,-3.58e-06,0.0,0 STARLINK-4556,1 53578U 22101BD  24098.03034344 -.00000358  00000-0 -43808-5 0  9994,2 53578  53.2194 323.6246 0001424  92.0962 268.0193 15.08843192 90525,6917.871,95.437,540.721,538.751,0.0
53578.0,STARLINK-4556,PAYLOAD,2024-04-07 21:23:42,15.08841378,0.0001468,53.2191,319.7588,90.7874,269.3287,4.436e-05,4.18e-06,0.0,0 STARLINK-4556,1 53578U 22101BD  24098.89146460  .00000418  00000-0  44360-4 0  9999,2 53578  53.2191 319.7588 0001468  90.7874 269.3287 15.08841378 90658,6917.876,95.437,540.757,538.726,0.0
53578.0,STARLINK-4556,PAYLOAD,2024-04-08 14:52:56,15.08841566,0.0001399,53.2195,316.4864,90.6445,269.4708,0.00013559,1.871e-05,0.0,0 STARLINK-4556,1 53578U 22101BD  24099.62010306  .00001871  00000-0  13559-3 0  9999,2 53578  53.2195 316.4864 0001399  90.6445 269.4708 15.08841566 90769,6917.876,95.437,540.708,538.773,0.0
53578.0,STARLINK-4556,PAYLOAD,2024-04-08 21:14:29,15.08846818,0.0001326,53.2177,315.2979,85.3448,274.7695,0.00018846,2.713e-05,0.0,0 STARLINK-4556,1 53578U 22101BD  24099.88506123  .00002713  00000-0  18846-3 0  9994,2 53578  53.2177 315.2979 0001326  85.3448 274.7695 15.08846818 90801,6917.86,95.437,540.642,538.807,0.0
53578.0,STARLINK-4556,PAYLOAD,2024-04-09 06:46:48,15.08840181,0.0001287,53.2164,313.5147,84.0672,276.0467,0.00011414,1.529e-05,0.0,0 STARLINK-4556,1 53578U 22101BD  24100.28250398  .00001529  00000-0  11414-3 0  9999,2 53578  53.2164 313.5147 0001287  84.0672 276.0467 15.08840181 90861,6917.88,95.438,540.635,538.855,0.0
53578.0,STARLINK-4556,PAYLOAD,2024-04-09 21:05:17,15.08831906,0.0001455,53.2199,310.8407,93.0522,267.0637,5.7629e-06,-1.96e-06,0.0,0 STARLINK-4556,1 53578U 22101BD  24100.87867455 -.00000196  00000-0  57629-5 0  9992,2 53578  53.2199 310.8407 0001455  93.0522 267.0637 15.08831906 90953,6917.905,95.438,540.777,538.764,0.0
53578.0,STARLINK-4556,PAYLOAD,2024-04-10 06:37:36,15.08833465,0.0001462,53.22,309.0567,92.7101,267.4058,1.177e-05,-1.01e-06,0.0,0 STARLINK-4556,1 53578U 22101BD  24101.27611499 -.00000101  00000-0  11770-4 0  9994,2 53578  53.2200 309.0567 0001462  92.7101 267.4058 15.08833465 91011,6917.9,95.438,540.777,538.754,0.0
53578.0,STARLINK-4556,PAYLOAD,2024-04-10 20:56:04,15.08841896,0.0001374,53.2187,306.3804,94.9838,265.1311,4.6651e-05,4.55e-06,0.0,0 STARLINK-4556,1 53578U 22101BD  24101.87226898  .00000455  00000-0  46651-4 0  9992,2 53578  53.2187 306.3804 0001374  94.9838 265.1311 15.08841896 91106,6917.875,95.437,540.69,538.789,0.0
53578.0,STARLINK-4556,PAYLOAD,2024-04-11 06:28:23,15.08838339,0.0001178,53.2167,304.5942,88.0709,272.0418,6.8862e-05,8.08e-06,0.0,0 STARLINK-4556,1 53578U 22101BD  24102.26971093  .00000808  00000-0  68862-4 0  9990,2 53578  53.2167 304.5942 0001178  88.0709 272.0418 15.08838339 91169,6917.885,95.438,540.565,538.936,0.0
53578.0,STARLINK-4556,PAYLOAD,2024-04-11 20:46:51,15.08835783,0.0001262,53.2169,301.9175,85.8376,274.276,0.00011209,1.496e-05,0.0,0 STARLINK-4556,1 53578U 22101BD  24102.86587378  .00001496  00000-0  11209-3 0  9991,2 53578  53.2169 301.9175 0001262  85.8376 274.2760 15.08835783 91253,6917.893,95.438,540.631,538.885,0.0
53578.0,STARLINK-4556,PAYLOAD,2024-04-13 18:52:56,15.08885989,0.0001098,53.2188,293.2871,140.3878,219.7194,0.00028534,4.262e-05,0.0,0 STARLINK-4556,1 53578U 22101BD  24104.78676639  .00004262  00000-0  28534-3 0  9996,2 53578  53.2188 293.2871 0001098 140.3878 219.7194 15.08885989 91541,6917.74,95.435,540.364,538.845,0.0
53578.0,STARLINK-4556,PAYLOAD,2024-04-14 18:43:46,15.08823751,0.0001467,53.2185,288.8308,95.4551,264.6608,-4.0695e-05,-9.35e-06,0.0,0 STARLINK-4556,1 53578U 22101BD  24105.78039472 -.00000935  00000-0 -40695-4 0  9993,2 53578  53.2185 288.8308 0001467  95.4551 264.6608 15.08823751 91695,6917.93,95.439,540.81,538.78,0.0
53578.0,STARLINK-4556,PAYLOAD,2024-04-14 21:54:32,15.08823398,0.0001697,53.2183,288.2346,103.78,256.3382,-0.00012528,-2.28e-05,0.0,0 STARLINK-4556,1 53578U 22101BD  24105.91287332 -.00002280  00000-0 -12528-3 0  9996,2 53578  53.2183 288.2346 0001697 103.7800 256.3382 15.08823398 91711,6917.931,95.439,540.97,538.622,0.0
53578.0,STARLINK-4556,PAYLOAD,2024-04-15 04:16:05,15.08814109,0.0001665,53.2182,287.0435,100.0227,260.0953,-9.5159e-05,-1.801e-05,0.0,0 STARLINK-4556,1 53578U 22101BD  24106.17784123 -.00001801  00000-0 -95159-4 0  9995,2 53578  53.2182 287.0435 0001665 100.0227 260.0953 15.08814109 91754,6917.96,95.439,540.976,538.673,0.0
53578.0,STARLINK-4556,PAYLOAD,2024-04-15 21:45:22,15.08782129,0.0001869,53.2179,283.7748,92.3829,267.7377,0.00069482,0.0001077,0.0,0 STARLINK-4556,1 53578U 22101BD  24106.90651587  .00010770  00000-0  69482-3 0  9995,2 53578  53.2179 283.7748 0001869  92.3829 267.7377 15.08782129 91869,6918.057,95.441,541.215,538.629,0.0
53578.0,STARLINK-4556,PAYLOAD,2024-04-16 12:03:50,15.08828036,0.0001577,53.2167,281.1017,95.6962,264.421,0.00034058,5.135e-05,0.0,0 STARLINK-4556,1 53578U 22101BD  24107.50266326  .00005135  00000-0  34058-3 0  9995,2 53578  53.2167 281.1017 0001577  95.6962 264.4210 15.08828036 91955,6917.917,95.438,540.873,538.691,0.0
53578.0,STARLINK-4556,PAYLOAD,2024-04-16 16:49:59,15.08839232,0.000157,53.2179,280.2095,105.6075,254.5091,0.00061704,9.546e-05,0.0,0 STARLINK-4556,1 53578U 22101BD  24107.70138247  .00009546  00000-0  61704-3 0  9995,2 53578  53.2179 280.2095 0001570 105.6075 254.5091 15.08839232 91984,6917.883,95.438,540.834,538.662,0.0
53578.0,STARLINK-4556,PAYLOAD,2024-04-17 11:54:38,15.0882069,7.19e-05,53.2164,276.6409,76.077,284.0302,0.00015174,2.127e-05,0.0,0 STARLINK-4556,1 53578U 22101BD  24108.49627717  .00002127  00000-0  15174-3 0  9995,2 53578  53.2164 276.6409 0000719  76.0770 284.0302 15.08820690 92109,6917.939,95.439,540.302,539.307,0.0
53578.0,STARLINK-4556,PAYLOAD,2024-04-17 15:05:24,15.08827787,0.0001867,53.2166,276.0445,132.3584,227.7566,9.1929e-05,1.175e-05,0.0,0 STARLINK-4556,1 53578U 22101BD  24108.62875438  .00001175  00000-0  91929-4 0  9990,2 53578  53.2166 276.0445 0001867 132.3584 227.7566 15.08827787 92121,6917.918,95.438,541.074,538.491,0.0
53578.0,STARLINK-4556,PAYLOAD,2024-04-17 16:40:47,15.08823397,0.0001014,53.2172,275.7486,103.7496,256.3609,-4.7133e-05,-1.037e-05,0.0,0 STARLINK-4556,1 53578U 22101BD  24108.69499602 -.00001037  00000-0 -47133-4 0  9999,2 53578  53.2172 275.7486 0001014 103.7496 256.3609 15.08823397 92137,6917.931,95.439,540.498,539.095,0.0
